[{"OBJECT_NAME":"COSMOS 2502","OBJECT_ID":"2014-086A","EPOCH":"2026-03-09T23:20:55.492800","MEAN_MOTION":13.97809057,"ECCENTRICITY":0.0007913,"INCLINATION":67.151,"RA_OF_ASC_NODE":248.8108,"ARG_OF_PERICENTER":280.0758,"MEAN_ANOMALY":79.9434,"EPHEMERIS_TYPE":0,"CLASSIFICATION_TYPE":"U","NORAD_CAT_ID":40358,"ELEMENT_SET_NO":999,"REV_AT_EPOCH":57008,"BSTAR":4.1810399e-5,"MEAN_MOTION_DOT":-1.6e-7,"MEAN_MOTION_DDOT":0},{"OBJECT_NAME":"COSMOS 1275 DEB","OBJECT_ID":"1981-053PC","EPOCH":"2026-03-08T11:47:58.428672","MEAN_MOTION":14.03363986,"ECCENTRICITY":0.0037186,"INCLINATION":82.7034,"RA_OF_ASC_NODE":80.0092,"ARG_OF_PERICENTER":308.2238,"MEAN_ANOMALY":204.3515,"EPHEMERIS_TYPE":0,"CLASSIFICATION_TYPE":"U","NORAD_CAT_ID":39966,"ELEMENT_SET_NO":999,"REV_AT_EPOCH":59900,"BSTAR":0.0013678633,"MEAN_MOTION_DOT":2.165e-5,"MEAN_MOTION_DDOT":0}]
